[{"CCSDS_OMM_VERS":"2.0","COMMENT":"GENERATED VIA SPACE-TRACK.ORG API","CREATION_DATE":"2021-05-22T14:46:11","ORIGINATOR":"18 SPCS","OBJECT_NAME":"ONEWEB-0220","OBJECT_ID":"2021-031Y","CENTER_NAME":"EARTH","REF_FRAME":"TEME","TIME_SYSTEM":"UTC","MEAN_ELEMENT_THEORY":"SGP4","EPOCH":"2021-05-22T14:00:01.000224","MEAN_MOTION":"15.22016926","ECCENTRICITY":"0.00121460","INCLINATION":"87.4604","RA_OF_ASC_NODE":"303.7252","ARG_OF_PERICENTER":"149.1516","MEAN_ANOMALY":"257.9966","EPHEMERIS_TYPE":"0","CLASSIFICATION_TYPE":"U","NORAD_CAT_ID":"48232","ELEMENT_SET_NO":"999","REV_AT_EPOCH":"409","BSTAR":"-0.05460300000000","MEAN_MOTION_DOT":"-0.01137073","MEAN_MOTION_DDOT":"0.0000000000000","SEMIMAJOR_AXIS":"6877.895","PERIOD":"94.611","APOAPSIS":"508.114","PERIAPSIS":"491.406","OBJECT_TYPE":"PAYLOAD","RCS_SIZE":"MEDIUM","COUNTRY_CODE":"UK","LAUNCH_DATE":"2021-04-25","SITE":"VOSTO","DECAY_DATE":null,"FILE":"3040454","GP_ID":"177653951","TLE_LINE0":"0 ONEWEB-0220","TLE_LINE1":"1 48232U 21031Y   21142.58334491 -.01137073  00000-0 -54603-1 0  9996","TLE_LINE2":"2 48232  87.4604 303.7252 0012146 149.1516 257.9966 15.22016926  4094"},{"CCSDS_OMM_VERS":"2.0","COMMENT":"GENERATED VIA SPACE-TRACK.ORG API","CREATION_DATE":"2021-05-23T04:22:17","ORIGINATOR":"18 SPCS","OBJECT_NAME":"ONEWEB-0220","OBJECT_ID":"2021-031Y","CENTER_NAME":"EARTH","REF_FRAME":"TEME","TIME_SYSTEM":"UTC","MEAN_ELEMENT_THEORY":"SGP4","EPOCH":"2021-05-22T22:00:00.999936","MEAN_MOTION":"15.21186832","ECCENTRICITY":"0.00121550","INCLINATION":"87.4624","RA_OF_ASC_NODE":"303.6118","ARG_OF_PERICENTER":"147.3495","MEAN_ANOMALY":"284.4602","EPHEMERIS_TYPE":"0","CLASSIFICATION_TYPE":"U","NORAD_CAT_ID":"48232","ELEMENT_SET_NO":"999","REV_AT_EPOCH":"183","BSTAR":"-0.05173300000000","MEAN_MOTION_DOT":"-0.01058116","MEAN_MOTION_DDOT":"0.0000000000000","SEMIMAJOR_AXIS":"6880.397","PERIOD":"94.663","APOAPSIS":"510.625","PERIAPSIS":"493.898","OBJECT_TYPE":"PAYLOAD","RCS_SIZE":"MEDIUM","COUNTRY_CODE":"UK","LAUNCH_DATE":"2021-04-25","SITE":"VOSTO","DECAY_DATE":null,"FILE":"3040824","GP_ID":"177706970","TLE_LINE0":"0 ONEWEB-0220","TLE_LINE1":"1 48232U 21031Y   21142.91667824 -.01058116  00000-0 -51733-1 0  9993","TLE_LINE2":"2 48232  87.4624 303.6118 0012155 147.3495 284.4602 15.21186832  1836"},{"CCSDS_OMM_VERS":"2.0","COMMENT":"GENERATED VIA SPACE-TRACK.ORG API","CREATION_DATE":"2021-05-23T19:20:22","ORIGINATOR":"18 SPCS","OBJECT_NAME":"ONEWEB-0220","OBJECT_ID":"2021-031Y","CENTER_NAME":"EARTH","REF_FRAME":"TEME","TIME_SYSTEM":"UTC","MEAN_ELEMENT_THEORY":"SGP4","EPOCH":"2021-05-23T14:00:01.000224","MEAN_MOTION":"15.19633326","ECCENTRICITY":"0.00123360","INCLINATION":"87.4670","RA_OF_ASC_NODE":"303.3874","ARG_OF_PERICENTER":"145.0637","MEAN_ANOMALY":"333.1615","EPHEMERIS_TYPE":"0","CLASSIFICATION_TYPE":"U","NORAD_CAT_ID":"48232","ELEMENT_SET_NO":"999","REV_AT_EPOCH":"179","BSTAR":"-0.05912700000000","MEAN_MOTION_DOT":"-0.01162360","MEAN_MOTION_DDOT":"0.0000000000000","SEMIMAJOR_AXIS":"6885.085","PERIOD":"94.760","APOAPSIS":"515.443","PERIAPSIS":"498.456","OBJECT_TYPE":"PAYLOAD","RCS_SIZE":"MEDIUM","COUNTRY_CODE":"UK","LAUNCH_DATE":"2021-04-25","SITE":"VOSTO","DECAY_DATE":null,"FILE":"3041263","GP_ID":"177740395","TLE_LINE0":"0 ONEWEB-0220","TLE_LINE1":"1 48232U 21031Y   21143.58334491 -.01162360  00000-0 -59127-1 0  9990","TLE_LINE2":"2 48232  87.4670 303.3874 0012336 145.0637 333.1615 15.19633326  1790"},{"CCSDS_OMM_VERS":"2.0","COMMENT":"GENERATED VIA SPACE-TRACK.ORG API","CREATION_DATE":"2021-05-23T22:26:11","ORIGINATOR":"18 SPCS","OBJECT_NAME":"ONEWEB-0220","OBJECT_ID":"2021-031Y","CENTER_NAME":"EARTH","REF_FRAME":"TEME","TIME_SYSTEM":"UTC","MEAN_ELEMENT_THEORY":"SGP4","EPOCH":"2021-05-23T20:00:01.000224","MEAN_MOTION":"15.18983709","ECCENTRICITY":"0.00122390","INCLINATION":"87.4687","RA_OF_ASC_NODE":"303.3027","ARG_OF_PERICENTER":"144.9537","MEAN_ANOMALY":"259.7202","EPHEMERIS_TYPE":"0","CLASSIFICATION_TYPE":"U","NORAD_CAT_ID":"48232","ELEMENT_SET_NO":"999","REV_AT_EPOCH":"428","BSTAR":"-0.05557000000000","MEAN_MOTION_DOT":"-0.01065154","MEAN_MOTION_DDOT":"0.0000000000000","SEMIMAJOR_AXIS":"6887.048","PERIOD":"94.800","APOAPSIS":"517.342","PERIAPSIS":"500.484","OBJECT_TYPE":"PAYLOAD","RCS_SIZE":"MEDIUM","COUNTRY_CODE":"UK","LAUNCH_DATE":"2021-04-25","SITE":"VOSTO","DECAY_DATE":null,"FILE":"3041312","GP_ID":"177741775","TLE_LINE0":"0 ONEWEB-0220","TLE_LINE1":"1 48232U 21031Y   21143.83334491 -.01065154  00000-0 -55570-1 0  9999","TLE_LINE2":"2 48232  87.4687 303.3027 0012239 144.9537 259.7202 15.18983709  4281"}]